{"type": "FeatureCollection", "features": [ {"type": "Feature", "properties": {"norad_id": 34634, "name": "COSMOS 2251 DEB", "group": "cosmos-2251-debris", "lat": -49.42961226547447, "lon": -120.94025530420384, "alt_km": 710.6060468500864, "timestamp": "2025-12-10T07:43:55.174043+00:00", "meta": {"OBJECT_NAME": "COSMOS 2251 DEB", "OBJECT_ID": "1993-036XF", "EPOCH": "2025-12-09T14:52:21.177984", "MEAN_MOTION": 14.55644976, "ECCENTRICITY": 0.0044329, "INCLINATION": 74.0525, "RA_OF_ASC_NODE": 40.8795, "ARG_OF_PERICENTER": 149.1855, "MEAN_ANOMALY": 2.7227, "EPHEMERIS_TYPE": 0, "CLASSIFICATION_TYPE": "U", "NORAD_CAT_ID": 34634, "ELEMENT_SET_NO": 999, "REV_AT_EPOCH": 88736, "BSTAR": 0.0005767, "MEAN_MOTION_DOT": 2.523e-05, "MEAN_MOTION_DDOT": 0}, "tle": {"line1": "1 34634U 93036XF  25343.61968956  .00002523  00000+0  57670-3 0  9997", "line2": "2 34634  74.0525  40.8795 0044329 149.1855   2.7227 14.55644976887366"}}, "geometry": {"type": "Point", "coordinates": [-120.94025530420384, -49.42961226547447]}}, {"type": "Feature", "properties": {"norad_id": 34635, "name": "COSMOS 2251 DEB", "group": "cosmos-2251-debris", "lat": -15.712859906201576, "lon": 70.77141798952371, "alt_km": 690.5003220661392, "timestamp": "2025-12-10T07:43:55.174054+00:00", "meta": {"OBJECT_NAME": "COSMOS 2251 DEB", "OBJECT_ID": "1993-036XG", "EPOCH": "2025-12-09T09:13:46.007328", "MEAN_MOTION": 14.68189273, "ECCENTRICITY": 0.00288851, "INCLINATION": 74.0455, "RA_OF_ASC_NODE": 77.1985, "ARG_OF_PERICENTER": 147.0623, "MEAN_ANOMALY": 283.1189, "EPHEMERIS_TYPE": 0, "CLASSIFICATION_TYPE": "U", "NORAD_CAT_ID": 34635, "ELEMENT_SET_NO": 999, "REV_AT_EPOCH": 73170, "BSTAR": 0.0019014244, "MEAN_MOTION_DOT": 0.00011001, "MEAN_MOTION_DDOT": 0}, "tle": {"line1": "1 34635U 93036XG  25343.38456027  .00011001  00000+0  19014-2 0  9993", "line2": "2 34635  74.0455  77.1985 0028885 147.0623 283.1189 14.68189273731708"}}, "geometry": {"type": "Point", "coordinates": [70.77141798952371, -15.712859906201576]}}, {"type": "Feature", "properties": {"norad_id": 34637, "name": "COSMOS 2251 DEB", "group": "cosmos-2251-debris", "lat": -61.01821416015183, "lon": -43.14598694066658, "alt_km": 686.7207598186551, "timestamp": "2025-12-10T07:43:55.174063+00:00", "meta": {"OBJECT_NAME": "COSMOS 2251 DEB", "OBJECT_ID": "1993-036XJ", "EPOCH": "2025-12-09T18:13:09.557760", "MEAN_MOTION": 14.60049838, "ECCENTRICITY": 0.0050065, "INCLINATION": 74.0498, "RA_OF_ASC_NODE": 106.8405, "ARG_OF_PERICENTER": 178.0438, "MEAN_ANOMALY": 348.6861, "EPHEMERIS_TYPE": 0, "CLASSIFICATION_TYPE": "U", "NORAD_CAT_ID": 34637, "ELEMENT_SET_NO": 999, "REV_AT_EPOCH": 88483, "BSTAR": 0.0018, "MEAN_MOTION_DOT": 8.782e-05, "MEAN_MOTION_DDOT": 0}, "tle": {"line1": "1 34637U 93036XJ  25343.75913840  .00008782  00000+0  18000-2 0  9993", "line2": "2 34637  74.0498 106.8405 0050065 178.0438 348.6861 14.60049838884838"}}, "geometry": {"type": "Point", "coordinates": [-43.14598694066658, -61.01821416015183]}}, {"type": "Feature", "properties": {"norad_id": 34641, "name": "COSMOS 2251 DEB", "group": "cosmos-2251-debris", "lat": -51.22671281894891, "lon": 65.09592975211146, "alt_km": 718.7158314993148, "timestamp": "2025-12-10T07:43:55.174074+00:00", "meta": {"OBJECT_NAME": "COSMOS 2251 DEB", "OBJECT_ID": "1993-036XN", "EPOCH": "2025-12-08T08:18:31.274784", "MEAN_MOTION": 14.51947493, "ECCENTRICITY": 0.00179207, "INCLINATION": 73.839, "RA_OF_ASC_NODE": 90.0233, "ARG_OF_PERICENTER": 6.2701, "MEAN_ANOMALY": 55.3534, "EPHEMERIS_TYPE": 0, "CLASSIFICATION_TYPE": "U", "NORAD_CAT_ID": 34641, "ELEMENT_SET_NO": 999, "REV_AT_EPOCH": 88192, "BSTAR": 0.0014885346, "MEAN_MOTION_DOT": 5.995e-05, "MEAN_MOTION_DDOT": 0}, "tle": {"line1": "1 34641U 93036XN  25342.34619531  .00005995  00000+0  14885-2 0  9992", "line2": "2 34641  73.8390  90.0233 0017920   6.2701  55.3534 14.51947493881922"}}, "geometry": {"type": "Point", "coordinates": [65.09592975211146, -51.22671281894891]}}, {"type": "Feature", "properties": {"norad_id": 34642, "name": "COSMOS 2251 DEB", "group": "cosmos-2251-debris", "lat": 47.40392249612357, "lon": 145.8116413005201, "alt_km": 767.3883800690455, "timestamp": "2025-12-10T07:43:55.174084+00:00", "meta": {"OBJECT_NAME": "COSMOS 2251 DEB", "OBJECT_ID": "1993-036XP", "EPOCH": "2025-12-09T18:13:17.254272", "MEAN_MOTION": 13.9896193, "ECCENTRICITY": 0.0207449, "INCLINATION": 74.0052, "RA_OF_ASC_NODE": 344.9639, "ARG_OF_PERICENTER": 165.5338, "MEAN_ANOMALY": 11.7352, "EPHEMERIS_TYPE": 0, "CLASSIFICATION_TYPE": "U", "NORAD_CAT_ID": 34642, "ELEMENT_SET_NO": 999, "REV_AT_EPOCH": 85251, "BSTAR": 0.0013683, "MEAN_MOTION_DOT": 2.353e-05, "MEAN_MOTION_DDOT": 0}, "tle": {"line1": "1 34642U 93036XP  25343.75922748  .00002353  00000+0  13683-2 0  9996", "line2": "2 34642  74.0052 344.9639 0207449 165.5338  11.7352 13.98961930852513"}}, "geometry": {"type": "Point", "coordinates": [145.8116413005201, 47.40392249612357]}}, {"type": "Feature", "properties": {"norad_id": 34671, "name": "COSMOS 2251 DEB", "group": "cosmos-2251-debris", "lat": -70.93650651891025, "lon": 82.97991316215565, "alt_km": 674.1289306037679, "timestamp": "2025-12-10T07:43:55.174094+00:00", "meta": {"OBJECT_NAME": "COSMOS 2251 DEB", "OBJECT_ID": "1993-036XR", "EPOCH": "2025-12-09T17:26:17.672352", "MEAN_MOTION": 14.66843353, "ECCENTRICITY": 0.0011692, "INCLINATION": 74.0267, "RA_OF_ASC_NODE": 140.1121, "ARG_OF_PERICENTER": 220.0956, "MEAN_ANOMALY": 156.6146, "EPHEMERIS_TYPE": 0, "CLASSIFICATION_TYPE": "U", "NORAD_CAT_ID": 34671, "ELEMENT_SET_NO": 999, "REV_AT_EPOCH": 88253, "BSTAR": 0.0027981, "MEAN_MOTION_DOT": 0.00015648, "MEAN_MOTION_DDOT": 0}, "tle": {"line1": "1 34671U 93036XR  25343.72659343  .00015648  00000+0  27981-2 0  9990", "line2": "2 34671  74.0267 140.1121 0011692 220.0956 156.6146 14.66843353882530"}}, "geometry": {"type": "Point", "coordinates": [82.97991316215565, -70.93650651891025]}}, {"type": "Feature", "properties": {"norad_id": 34672, "name": "COSMOS 2251 DEB", "group": "cosmos-2251-debris", "lat": 4.60394269293275, "lon": -48.6458891802991, "alt_km": 756.3333757811506, "timestamp": "2025-12-10T07:43:55.174104+00:00", "meta": {"OBJECT_NAME": "COSMOS 2251 DEB", "OBJECT_ID": "1993-036XS", "EPOCH": "2025-12-08T07:33:35.281152", "MEAN_MOTION": 14.36398163, "ECCENTRICITY": 0.00235672, "INCLINATION": 74.0335, "RA_OF_ASC_NODE": 313.7193, "ARG_OF_PERICENTER": 26.7043, "MEAN_ANOMALY": 43.2667, "EPHEMERIS_TYPE": 0, "CLASSIFICATION_TYPE": "U", "NORAD_CAT_ID": 34672, "ELEMENT_SET_NO": 999, "REV_AT_EPOCH": 65114, "BSTAR": 0.00050497184, "MEAN_MOTION_DOT": 1.458e-05, "MEAN_MOTION_DDOT": 0}, "tle": {"line1": "1 34672U 93036XS  25342.31499168  .00001458  00000+0  50497-3 0  9995", "line2": "2 34672  74.0335 313.7193 0023567  26.7043  43.2667 14.36398163651147"}}, "geometry": {"type": "Point", "coordinates": [-48.6458891802991, 4.60394269293275]}}, {"type": "Feature", "properties": {"norad_id": 34678, "name": "COSMOS 2251 DEB", "group": "cosmos-2251-debris", "lat": -59.025546118403156, "lon": -141.43276112386445, "alt_km": 815.710283132682, "timestamp": "2025-12-10T07:43:55.174114+00:00", "meta": {"OBJECT_NAME": "COSMOS 2251 DEB", "OBJECT_ID": "1993-036XY", "EPOCH": "2025-12-09T08:52:22.321056", "MEAN_MOTION": 14.30064255, "ECCENTRICITY": 0.00243381, "INCLINATION": 74.0379, "RA_OF_ASC_NODE": 11.8201, "ARG_OF_PERICENTER": 62.0251, "MEAN_ANOMALY": 319.4943, "EPHEMERIS_TYPE": 0, "CLASSIFICATION_TYPE": "U", "NORAD_CAT_ID": 34678, "ELEMENT_SET_NO": 999, "REV_AT_EPOCH": 87331, "BSTAR": 5.4845425e-05, "MEAN_MOTION_DOT": 1.16e-06, "MEAN_MOTION_DDOT": 0}, "tle": {"line1": "1 34678U 93036XY  25343.36970279  .00000116  00000+0  54845-4 0  9996", "line2": "2 34678  74.0379  11.8201 0024338  62.0251 319.4943 14.30064255873314"}}, "geometry": {"type": "Point", "coordinates": [-141.43276112386445, -59.025546118403156]}}, {"type": "Feature", "properties": {"norad_id": 34680, "name": "COSMOS 2251 DEB", "group": "cosmos-2251-debris", "lat": -70.99855726244141, "lon": 10.6644535599267, "alt_km": 694.0237494764515, "timestamp": "2025-12-10T07:43:55.174123+00:00", "meta": {"OBJECT_NAME": "COSMOS 2251 DEB", "OBJECT_ID": "1993-036YA", "EPOCH": "2025-12-09T03:09:20.077632", "MEAN_MOTION": 14.60556686, "ECCENTRICITY": 0.00068853, "INCLINATION": 74.043, "RA_OF_ASC_NODE": 136.7461, "ARG_OF_PERICENTER": 232.5259, "MEAN_ANOMALY": 248.8921, "EPHEMERIS_TYPE": 0, "CLASSIFICATION_TYPE": "U", "NORAD_CAT_ID": 34680, "ELEMENT_SET_NO": 999, "REV_AT_EPOCH": 88275, "BSTAR": 0.001505197, "MEAN_MOTION_DOT": 7.293e-05, "MEAN_MOTION_DDOT": 0}, "tle": {"line1": "1 34680U 93036YA  25343.13148238  .00007293  00000+0  15052-2 0  9994", "line2": "2 34680  74.0430 136.7461 0006885 232.5259 248.8921 14.60556686882755"}}, "geometry": {"type": "Point", "coordinates": [10.6644535599267, -70.99855726244141]}}, {"type": "Feature", "properties": {"norad_id": 34681, "name": "COSMOS 2251 DEB", "group": "cosmos-2251-debris", "lat": -63.490063283348135, "lon": -99.77649893428378, "alt_km": 617.522768039018, "timestamp": "2025-12-10T07:43:55.174133+00:00", "meta": {"OBJECT_NAME": "COSMOS 2251 DEB", "OBJECT_ID": "1993-036YB", "EPOCH": "2025-12-09T20:50:41.266752", "MEAN_MOTION": 14.83101891, "ECCENTRICITY": 0.0025658, "INCLINATION": 74.0629, "RA_OF_ASC_NODE": 296.0707, "ARG_OF_PERICENTER": 353.2406, "MEAN_ANOMALY": 37.5033, "EPHEMERIS_TYPE": 0, "CLASSIFICATION_TYPE": "U", "NORAD_CAT_ID": 34681, "ELEMENT_SET_NO": 999, "REV_AT_EPOCH": 89228, "BSTAR": 0.0024676, "MEAN_MOTION_DOT": 0.00020248, "MEAN_MOTION_DDOT": 0}, "tle": {"line1": "1 34681U 93036YB  25343.86853318  .00020248  00000+0  24676-2 0  9994", "line2": "2 34681  74.0629 296.0707 0025658 353.2406  37.5033 14.83101891892288"}}, "geometry": {"type": "Point", "coordinates": [-99.77649893428378, -63.490063283348135]}}]}